CCSDS_OMM_VERS,COMMENT,CREATION_DATE,ORIGINATOR,OBJECT_NAME,OBJECT_ID,CENTER_NAME,REF_FRAME,TIME_SYSTEM,MEAN_ELEMENT_THEORY,EPOCH,MEAN_MOTION,ECCENTRICITY,INCLINATION,RA_OF_ASC_NODE,ARG_OF_PERICENTER,MEAN_ANOMALY,EPHEMERIS_TYPE,CLASSIFICATION_TYPE,NORAD_CAT_ID,ELEMENT_SET_NO,REV_AT_EPOCH,BSTAR,MEAN_MOTION_DOT,MEAN_MOTION_DDOT,SEMIMAJOR_AXIS,PERIOD,APOAPSIS,PERIAPSIS,OBJECT_TYPE,RCS_SIZE,COUNTRY_CODE,LAUNCH_DATE,SITE,DECAY_DATE,DECAYED,FILE,GP_ID,TLE_LINE0,TLE_LINE1,TLE_LINE2,height_km,latitude,longitude,velocity_kms,id
2.0,GENERATED VIA SPACE-TRACK.ORG API,2022-11-30T17:18:05,18 SPCS,STARLINK-3972,2022-053P,EARTH,TEME,UTC,SGP4,2022-11-30T09:52:08.127552,15.08836908,0.0002468,53.2176,119.9483,53.1307,306.9911,0,U,52669,999,3059,4.5631e-05,4.38e-06,0.0,6917.89,95.438,541.462,538.048,PAYLOAD,LARGE,US,2022-05-18,AFETR,,0,3675646,219176503,0 STARLINK-3972,1 52669U 22053P   22334.41120518  .00000438  00000-0  45631-4 0  9994,2 52669  53.2176 119.9483 0002468  53.1307 306.9911 15.08836908 30592,552.8391971963283,-38.7302620041481,108.44538758757534,7.5849072402480155,628ea112a8973c1694df1124
2.0,GENERATED VIA SPACE-TRACK.ORG API,2022-11-30T17:18:05,18 SPCS,STARLINK-4007,2022-053BD,EARTH,TEME,UTC,SGP4,2022-11-30T08:52:34.133664,15.08837113,0.0002676,53.2173,100.1278,44.1548,315.9658,0,U,52707,999,3092,5.3352e-05,5.61e-06,0.0,6917.889,95.438,541.605,537.903,PAYLOAD,LARGE,US,2022-05-18,AFETR,,0,3675646,219176010,0 STARLINK-4007,1 52707U 22053BD  22334.36983951  .00000561  00000-0  53352-4 0  9995,2 52707  53.2173 100.1278 0002676  44.1548 315.9658 15.08837113 30928,541.2921941647401,4.964221723916783,-58.65181941180169,7.592604388666202,628ea112a8973c1694df1125
2.0,GENERATED VIA SPACE-TRACK.ORG API,2022-11-30T17:18:05,18 SPCS,STARLINK-4070,2022-053J,EARTH,TEME,UTC,SGP4,2022-11-30T10:39:48.959424,15.0884529,0.0002859,53.2176,119.7947,52.3099,307.8152,0,U,52664,999,3060,6.0659e-05,6.77e-06,0.0,6917.864,95.437,541.707,537.751,PAYLOAD,LARGE,US,2022-05-18,AFETR,,0,3675646,219176255,0 STARLINK-4070,1 52664U 22053J   22334.44431666  .00000677  00000-0  60659-4 0  9993,2 52664  53.2176 119.7947 0002859  52.3099 307.8152 15.08845290 30606,542.5538613666149,38.574507804354525,-71.32296807678578,7.596147860326808,628ea112a8973c1694df1126
2.0,GENERATED VIA SPACE-TRACK.ORG API,2022-11-30T17:18:05,18 SPCS,STARLINK-3962,2022-053BE,EARTH,TEME,UTC,SGP4,2022-11-30T08:04:53.019264,15.08832676,0.0003028,53.2193,100.2675,51.0185,309.1076,0,U,52708,999,3106,9.0764e-05,1.156e-05,0.0,6917.903,95.438,541.863,537.673,PAYLOAD,LARGE,US,2022-05-18,AFETR,,0,3675646,219176761,0 STARLINK-3962,1 52708U 22053BE  22334.33672476  .00001156  00000-0  90764-4 0  9999,2 52708  53.2193 100.2675 0003028  51.0185 309.1076 15.08832676 31063,540.4381931738808,-5.433923182233079,121.0071117602139,7.593566020805012,628ea112a8973c1694df112a
2.0,GENERATED VIA SPACE-TRACK.ORG API,2022-11-30T17:18:05,18 SPCS,STARLINK-4037,2022-053H,EARTH,TEME,UTC,SGP4,2022-11-30T10:29:13.862400,15.08831516,0.0003189,53.2172,119.826,49.4984,310.6285,0,U,52663,999,3060,-2.1154e-06,-3.22e-06,0.0,6917.906,95.438,541.977,537.565,PAYLOAD,LARGE,US,2022-05-18,AFETR,,0,3675646,219176505,0 STARLINK-4037,1 52663U 22053H   22334.43696600 -.00000322  00000-0 -21154-5 0  9999,2 52663  53.2172 119.8260 0003189  49.4984 310.6285 15.08831516 30602,541.011709138812,8.762823418875383,-41.53559639309656,7.593126318977673,628ea112a8973c1694df112c
2.0,GENERATED VIA SPACE-TRACK.ORG API,2022-11-30T17:18:05,18 SPCS,STARLINK-4067,2022-053N,EARTH,TEME,UTC,SGP4,2022-11-30T11:54:00.514656,15.08844826,0.0002716,53.2162,119.5654,47.4643,312.6578,0,U,52668,999,3061,0.00013012,1.783e-05,0.0,6917.866,95.437,541.61,537.852,PAYLOAD,LARGE,US,2022-05-18,AFETR,,0,3675646,219176756,0 STARLINK-4067,1 52668U 22053N   22334.49583929  .00001783  00000-0  13012-3 0  9991,2 52668  53.2162 119.5654 0002716  47.4643 312.6578 15.08844826 30611,548.0536889910218,-22.987983327718986,-16.55734400662061,7.587047942394592,628ea112a8973c1694df112d
2.0,GENERATED VIA SPACE-TRACK.ORG API,2022-11-30T17:18:05,18 SPCS,STARLINK-4073,2022-053S,EARTH,TEME,UTC,SGP4,2022-11-30T10:02:43.290240,15.08841713,0.0002406,53.2181,119.9106,51.6977,308.4231,0,U,52672,999,3059,1.6533e-05,-2.5e-07,0.0,6917.875,95.437,541.405,538.076,PAYLOAD,LARGE,US,2022-05-18,AFETR,,0,3675646,219176256,0 STARLINK-4073,1 52672U 22053S   22334.41855660 -.00000025  00000-0  16533-4 0  9993,2 52672  53.2181 119.9106 0002406  51.6977 308.4231 15.08841713 30594,559.641651409439,-53.34578911563601,52.73547842119354,7.58071275828004,628ea112a8973c1694df1134
2.0,GENERATED VIA SPACE-TRACK.ORG API,2022-11-30T17:18:05,18 SPCS,STARLINK-4006,2022-053W,EARTH,TEME,UTC,SGP4,2022-11-30T09:41:33.332064,15.08830632,0.000201,53.2176,119.9732,58.4341,301.6847,0,U,52676,999,3059,3.3787e-05,2.49e-06,0.0,6917.909,95.438,541.165,538.384,PAYLOAD,LARGE,US,2022-05-18,AFETR,,0,3675646,219176757,0 STARLINK-4006,1 52676U 22053W   22334.40385801  .00000249  00000-0  33787-4 0  9998,2 52676  53.2176 119.9732 0002010  58.4341 301.6847 15.08830632 30594,541.8102515483633,-9.021038552638572,138.2649868208107,7.592266985326771,628ea112a8973c1694df1137
2.0,GENERATED VIA SPACE-TRACK.ORG API,2022-11-30T17:18:05,18 SPCS,STARLINK-4075,2022-053Q,EARTH,TEME,UTC,SGP4,2022-11-30T10:14:42.266976,15.08835676,0.0002752,53.2162,119.8739,47.493,312.6294,0,U,52670,999,3060,3.1247e-05,2.09e-06,0.0,6917.894,95.438,541.662,537.855,PAYLOAD,LARGE,US,2022-05-18,AFETR,,0,3675646,219175255,0 STARLINK-4075,1 52670U 22053Q   22334.42687809  .00000209  00000-0  31247-4 0  9992,2 52670  53.2162 119.8739 0002752  47.4930 312.6294 15.08835676 30607,552.1924686705624,-33.5636036856117,-5.361778081393631,7.584508061521228,628ea112a8973c1694df113d
2.0,GENERATED VIA SPACE-TRACK.ORG API,2022-11-30T03:22:20,18 SPCS,STARLINK-3934,2022-053V,EARTH,TEME,UTC,SGP4,2022-11-29T16:03:00.074304,15.0885022,0.0002402,53.2179,113.2584,51.932,308.1888,0,U,52675,999,3061,0.00010265,1.346e-05,0.0,6917.849,95.437,541.376,538.052,PAYLOAD,LARGE,US,2022-05-18,AFETR,,0,3673849,219111689,0 STARLINK-3934,1 52675U 22053V   22333.66875086  .00001346  00000-0  10265-3 0  9997,2 52675  53.2179 113.2584 0002402  51.9320 308.1888 15.08850220 30613,538.6884691074629,19.196507254769056,150.02451379696333,7.596738662434592,628ea113a8973c1694df114c
2.0,GENERATED VIA SPACE-TRACK.ORG API,2022-11-30T17:18:05,18 SPCS,STARLINK-4031,2022-053Z,EARTH,TEME,UTC,SGP4,2022-11-29T17:11:54.827520,15.08846145,0.0002158,53.2179,113.0535,49.7612,310.3568,0,U,52679,999,3058,5.5929e-05,6.02e-06,0.0,6917.862,95.437,541.219,538.234,PAYLOAD,LARGE,US,2022-05-18,AFETR,,0,3675646,219176507,0 STARLINK-4031,1 52679U 22053Z   22333.71660680  .00000602  00000-0  55929-4 0  9990,2 52679  53.2179 113.0535 0002158  49.7612 310.3568 15.08846145 30585,543.2637582917123,41.967601927784216,-86.9010666565024,7.596122561370345,628ea113a8973c1694df1153
2.0,GENERATED VIA SPACE-TRACK.ORG API,2022-11-30T06:46:14,18 SPCS,STARLINK-4017,2022-053AC,EARTH,TEME,UTC,SGP4,2022-11-29T18:57:53.006112,15.08845623,0.0002753,53.218,112.7113,51.3749,308.7489,0,U,52682,999,3020,0.00010494,1.382e-05,0.0,6917.863,95.437,541.633,537.824,PAYLOAD,LARGE,US,2022-05-18,AFETR,,0,3673997,219118242,0 STARLINK-4017,1 52682U 22053AC  22333.79019683  .00001382  00000-0  10494-3 0  9996,2 52682  53.2180 112.7113 0002753  51.3749 308.7489 15.08845623 30202,550.3963633932681,-29.27049270939902,-5.098447000064914,7.585593905391044,628ea113a8973c1694df1181
2.0,GENERATED VIA SPACE-TRACK.ORG API,2022-11-30T14:36:14,18 SPCS,STARLINK-4014,2022-053AE,EARTH,TEME,UTC,SGP4,2022-11-30T09:11:03.024096,15.0886747,0.0002661,53.217,110.0555,39.6395,320.4792,0,U,52684,999,3030,-0.00029359,-4.962e-05,0.0,6917.796,95.436,541.502,537.821,PAYLOAD,LARGE,US,2022-05-18,AFETR,,0,3674961,219136581,0 STARLINK-4014,1 52684U 22053AE  22334.38267389 -.00004962  00000-0 -29359-3 0  9991,2 52684  53.2170 110.0555 0002661  39.6395 320.4792 15.08867470 30301,555.730923123032,-42.754724292577535,13.686450309560763,7.582591409956184,628ea113a8973c1694df118f
2.0,GENERATED VIA SPACE-TRACK.ORG API,2022-11-30T03:22:20,18 SPCS,STARLINK-4005,2022-053AG,EARTH,TEME,UTC,SGP4,2022-11-29T18:36:41.802048,15.08841617,0.0002333,53.2171,112.7852,51.8608,308.2594,0,U,52686,999,3058,0.00012043,1.629e-05,0.0,6917.875,95.437,541.354,538.127,PAYLOAD,LARGE,US,2022-05-18,AFETR,,0,3673849,219113440,0 STARLINK-4005,1 52686U 22053AG  22333.77548382  .00001629  00000-0  12043-3 0  9997,2 52686  53.2171 112.7852 0002333  51.8608 308.2594 15.08841617 30581,540.401115971852,12.731409279200516,-54.63666398082161,7.594101621430721,628ea113a8973c1694df1190
2.0,GENERATED VIA SPACE-TRACK.ORG API,2022-11-30T17:18:05,18 SPCS,STARLINK-3936,2022-053U,EARTH,TEME,UTC,SGP4,2022-11-30T13:08:13.737408,15.08793825,0.0002109,53.216,119.3293,59.2495,300.8705,0,U,52674,999,3062,0.00077143,0.00011995,0.0,6918.022,95.44,541.346,538.428,PAYLOAD,LARGE,US,2022-05-18,AFETR,,0,3675646,219175755,0 STARLINK-3936,1 52674U 22053U   22334.54738122  .00011995  00000-0  77143-3 0  9992,2 52674  53.2160 119.3293 0002109  59.2495 300.8705 15.08793825 30629,557.9309621299608,-49.617377510109165,84.11818729304547,7.581838588121958,628ea113a8973c1694df11a1
2.0,GENERATED VIA SPACE-TRACK.ORG API,2022-11-30T17:18:05,18 SPCS,STARLINK-4029,2022-053AF,EARTH,TEME,UTC,SGP4,2022-11-30T10:14:39.356160,15.08834309,0.000243,53.2189,109.8583,50.9064,309.2144,0,U,52685,999,3067,5.5825e-05,6e-06,0.0,6917.898,95.438,541.444,538.082,PAYLOAD,LARGE,US,2022-05-18,AFETR,,0,3675646,219177006,0 STARLINK-4029,1 52685U 22053AF  22334.42684440  .00000600  00000-0  55825-4 0  9999,2 52685  53.2189 109.8583 0002430  50.9064 309.2144 15.08834309 30673,552.0264080581819,-33.720683501294374,-15.189592742377325,7.584724722980181,628ea114a8973c1694df13d9
